[{"OBJECT_NAME":"SL-8 R/B","OBJECT_ID":"1979-089B","EPOCH":"2026-03-10T12:12:10.950912","MEAN_MOTION":14.42351404,"ECCENTRICITY":0.0017162,"INCLINATION":74.0667,"RA_OF_ASC_NODE":89.5278,"ARG_OF_PERICENTER":262.1209,"MEAN_ANOMALY":97.7999,"EPHEMERIS_TYPE":0,"CLASSIFICATION_TYPE":"U","NORAD_CAT_ID":11574,"ELEMENT_SET_NO":999,"REV_AT_EPOCH":43622,"BSTAR":0.00011157,"MEAN_MOTION_DOT":3.43e-6,"MEAN_MOTION_DDOT":0},{"OBJECT_NAME":"SL-14 R/B","OBJECT_ID":"1980-005B","EPOCH":"2026-03-10T17:37:30.061344","MEAN_MOTION":14.90931778,"ECCENTRICITY":0.0016272,"INCLINATION":82.5142,"RA_OF_ASC_NODE":306.2455,"ARG_OF_PERICENTER":154.9385,"MEAN_ANOMALY":205.2628,"EPHEMERIS_TYPE":0,"CLASSIFICATION_TYPE":"U","NORAD_CAT_ID":11672,"ELEMENT_SET_NO":999,"REV_AT_EPOCH":47664,"BSTAR":6.3589e-5,"MEAN_MOTION_DOT":6.54e-6,"MEAN_MOTION_DDOT":0},{"OBJECT_NAME":"SL-8 R/B","OBJECT_ID":"1981-003B","EPOCH":"2026-03-10T14:19:22.661184","MEAN_MOTION":15.11013948,"ECCENTRICITY":0.0262165,"INCLINATION":82.9387,"RA_OF_ASC_NODE":289.185,"ARG_OF_PERICENTER":175.493,"MEAN_ANOMALY":184.876,"EPHEMERIS_TYPE":0,"CLASSIFICATION_TYPE":"U","NORAD_CAT_ID":12139,"ELEMENT_SET_NO":999,"REV_AT_EPOCH":31481,"BSTAR":0.00055974,"MEAN_MOTION_DOT":0.0002186,"MEAN_MOTION_DDOT":0},{"OBJECT_NAME":"SL-3 R/B","OBJECT_ID":"1981-046B","EPOCH":"2026-03-10T19:44:42.776448","MEAN_MOTION":15.42029677,"ECCENTRICITY":0.0019439,"INCLINATION":81.2299,"RA_OF_ASC_NODE":288.3835,"ARG_OF_PERICENTER":18.4665,"MEAN_ANOMALY":341.7278,"EPHEMERIS_TYPE":0,"CLASSIFICATION_TYPE":"U","NORAD_CAT_ID":12465,"ELEMENT_SET_NO":999,"REV_AT_EPOCH":43860,"BSTAR":0.00034764,"MEAN_MOTION_DOT":0.0001497,"MEAN_MOTION_DDOT":0},{"OBJECT_NAME":"SL-3 R/B","OBJECT_ID":"1981-103B","EPOCH":"2026-03-10T19:47:26.697120","MEAN_MOTION":15.21391815,"ECCENTRICITY":0.0012351,"INCLINATION":81.1585,"RA_OF_ASC_NODE":212.1006,"ARG_OF_PERICENTER":282.7697,"MEAN_ANOMALY":77.2154,"EPHEMERIS_TYPE":0,"CLASSIFICATION_TYPE":"U","NORAD_CAT_ID":12904,"ELEMENT_SET_NO":999,"REV_AT_EPOCH":97340,"BSTAR":0.00028261,"MEAN_MOTION_DOT":6.375e-5,"MEAN_MOTION_DDOT":0},{"OBJECT_NAME":"SL-3 R/B","OBJECT_ID":"1982-013B","EPOCH":"2026-03-10T19:58:22.967328","MEAN_MOTION":15.22031571,"ECCENTRICITY":0.002268,"INCLINATION":81.1761,"RA_OF_ASC_NODE":159.4319,"ARG_OF_PERICENTER":173.7105,"MEAN_ANOMALY":186.4416,"EPHEMERIS_TYPE":0,"CLASSIFICATION_TYPE":"U","NORAD_CAT_ID":13068,"ELEMENT_SET_NO":999,"REV_AT_EPOCH":40452,"BSTAR":0.00021172,"MEAN_MOTION_DOT":4.897e-5,"MEAN_MOTION_DDOT":0},{"OBJECT_NAME":"SL-3 R/B","OBJECT_ID":"1982-039B","EPOCH":"2026-03-10T20:23:18.719808","MEAN_MOTION":15.10089653,"ECCENTRICITY":0.0029674,"INCLINATION":81.1582,"RA_OF_ASC_NODE":214.6246,"ARG_OF_PERICENTER":320.6886,"MEAN_ANOMALY":39.2184,"EPHEMERIS_TYPE":0,"CLASSIFICATION_TYPE":"U","NORAD_CAT_ID":13154,"ELEMENT_SET_NO":999,"REV_AT_EPOCH":38181,"BSTAR":0.00019542,"MEAN_MOTION_DOT":3.237e-5,"MEAN_MOTION_DDOT":0},{"OBJECT_NAME":"SL-3 R/B","OBJECT_ID":"1982-079B","EPOCH":"2026-03-10T18:46:45.313824","MEAN_MOTION":15.24819536,"ECCENTRICITY":0.0025066,"INCLINATION":81.1479,"RA_OF_ASC_NODE":191.7869,"ARG_OF_PERICENTER":161.1783,"MEAN_ANOMALY":199.0384,"EPHEMERIS_TYPE":0,"CLASSIFICATION_TYPE":"U","NORAD_CAT_ID":13403,"ELEMENT_SET_NO":999,"REV_AT_EPOCH":37786,"BSTAR":0.00030604,"MEAN_MOTION_DOT":7.689e-5,"MEAN_MOTION_DDOT":0},{"OBJECT_NAME":"SL-14 R/B","OBJECT_ID":"1982-092B","EPOCH":"2026-03-10T17:33:47.978784","MEAN_MOTION":14.86667452,"ECCENTRICITY":0.001896,"INCLINATION":82.5693,"RA_OF_ASC_NODE":140.4249,"ARG_OF_PERICENTER":299.8259,"MEAN_ANOMALY":182.1188,"EPHEMERIS_TYPE":0,"CLASSIFICATION_TYPE":"U","NORAD_CAT_ID":13553,"ELEMENT_SET_NO":999,"REV_AT_EPOCH":32908,"BSTAR":5.8168e-5,"MEAN_MOTION_DOT":5.42e-6,"MEAN_MOTION_DDOT":0},{"OBJECT_NAME":"SL-3 R/B","OBJECT_ID":"1983-010B","EPOCH":"2026-03-10T06:41:15.215712","MEAN_MOTION":15.46381546,"ECCENTRICITY":0.0017941,"INCLINATION":81.1059,"RA_OF_ASC_NODE":1.5253,"ARG_OF_PERICENTER":49.1452,"MEAN_ANOMALY":311.1344,"EPHEMERIS_TYPE":0,"CLASSIFICATION_TYPE":"U","NORAD_CAT_ID":13819,"ELEMENT_SET_NO":999,"REV_AT_EPOCH":35803,"BSTAR":0.00040051,"MEAN_MOTION_DOT":0.00019966,"MEAN_MOTION_DDOT":0},{"OBJECT_NAME":"SL-3 R/B","OBJECT_ID":"1983-075B","EPOCH":"2026-03-10T19:01:41.260224","MEAN_MOTION":15.38448883,"ECCENTRICITY":0.0020222,"INCLINATION":97.6148,"RA_OF_ASC_NODE":74.4118,"ARG_OF_PERICENTER":221.6818,"MEAN_ANOMALY":138.2886,"EPHEMERIS_TYPE":0,"CLASSIFICATION_TYPE":"U","NORAD_CAT_ID":14208,"ELEMENT_SET_NO":999,"REV_AT_EPOCH":33032,"BSTAR":0.0003487,"MEAN_MOTION_DOT":0.00013236,"MEAN_MOTION_DDOT":0},{"OBJECT_NAME":"COSMOS 1536","OBJECT_ID":"1984-013A","EPOCH":"2026-03-10T13:45:57.184128","MEAN_MOTION":15.23837563,"ECCENTRICITY":0.0012474,"INCLINATION":82.543,"RA_OF_ASC_NODE":106.972,"ARG_OF_PERICENTER":279.7072,"MEAN_ANOMALY":80.2756,"EPHEMERIS_TYPE":0,"CLASSIFICATION_TYPE":"U","NORAD_CAT_ID":14699,"ELEMENT_SET_NO":999,"REV_AT_EPOCH":27275,"BSTAR":0.0002982,"MEAN_MOTION_DOT":7.233e-5,"MEAN_MOTION_DDOT":0},{"OBJECT_NAME":"SL-14 R/B","OBJECT_ID":"1984-027B","EPOCH":"2026-03-10T20:06:32.868288","MEAN_MOTION":14.85977795,"ECCENTRICITY":0.0017258,"INCLINATION":82.5389,"RA_OF_ASC_NODE":243.9355,"ARG_OF_PERICENTER":333.8906,"MEAN_ANOMALY":26.1438,"EPHEMERIS_TYPE":0,"CLASSIFICATION_TYPE":"U","NORAD_CAT_ID":14820,"ELEMENT_SET_NO":999,"REV_AT_EPOCH":24780,"BSTAR":6.8126e-5,"MEAN_MOTION_DOT":6.2e-6,"MEAN_MOTION_DDOT":0},{"OBJECT_NAME":"SL-8 R/B","OBJECT_ID":"1985-006B","EPOCH":"2026-03-10T20:21:56.714112","MEAN_MOTION":14.3778386,"ECCENTRICITY":0.0018401,"INCLINATION":74.0433,"RA_OF_ASC_NODE":259.0158,"ARG_OF_PERICENTER":176.5904,"MEAN_ANOMALY":284.6449,"EPHEMERIS_TYPE":0,"CLASSIFICATION_TYPE":"U","NORAD_CAT_ID":15483,"ELEMENT_SET_NO":999,"REV_AT_EPOCH":15419,"BSTAR":0.00013177,"MEAN_MOTION_DOT":3.71e-6,"MEAN_MOTION_DDOT":0},{"OBJECT_NAME":"SL-12 R/B(2)","OBJECT_ID":"1985-042D","EPOCH":"2026-03-10T18:30:23.470272","MEAN_MOTION":14.21982645,"ECCENTRICITY":0.0033187,"INCLINATION":71.1063,"RA_OF_ASC_NODE":85.4437,"ARG_OF_PERICENTER":126.3623,"MEAN_ANOMALY":46.0282,"EPHEMERIS_TYPE":0,"CLASSIFICATION_TYPE":"U","NORAD_CAT_ID":15772,"ELEMENT_SET_NO":999,"REV_AT_EPOCH":11454,"BSTAR":5.6979e-5,"MEAN_MOTION_DOT":7.9e-7,"MEAN_MOTION_DDOT":0},{"OBJECT_NAME":"SL-14 R/B","OBJECT_ID":"1985-069B","EPOCH":"2026-03-10T19:44:08.150784","MEAN_MOTION":14.86434746,"ECCENTRICITY":0.0018574,"INCLINATION":82.5287,"RA_OF_ASC_NODE":23.8679,"ARG_OF_PERICENTER":183.9136,"MEAN_ANOMALY":176.1939,"EPHEMERIS_TYPE":0,"CLASSIFICATION_TYPE":"U","NORAD_CAT_ID":15945,"ELEMENT_SET_NO":999,"REV_AT_EPOCH":17300,"BSTAR":7.6865e-5,"MEAN_MOTION_DOT":7.05e-6,"MEAN_MOTION_DDOT":0},{"OBJECT_NAME":"SL-16 R/B","OBJECT_ID":"1985-097B","EPOCH":"2026-03-10T15:21:33.166944","MEAN_MOTION":14.16598587,"ECCENTRICITY":0.0009903,"INCLINATION":71.0026,"RA_OF_ASC_NODE":138.554,"ARG_OF_PERICENTER":258.7161,"MEAN_ANOMALY":253.3828,"EPHEMERIS_TYPE":0,"CLASSIFICATION_TYPE":"U","NORAD_CAT_ID":16182,"ELEMENT_SET_NO":999,"REV_AT_EPOCH":8736,"BSTAR":-7.1045e-5,"MEAN_MOTION_DOT":-1.9e-6,"MEAN_MOTION_DDOT":0}]
